IMECE                   
1 56178U 23054A   23133.85184818  .00000647  00000+0  12686-3 0  9998
2 56178  98.2108  29.5512 0009495 118.9273 241.2885 14.66078418  4806
2023-054B               
1 56179U 23054B   23133.95064992  .00009686  00000+0  43434-3 0  9997
2 56179  97.4060  29.3233 0009673 148.0023 267.1370 15.21377775  4972
DEWASAT-2               
1 56180U 23054C   23133.73679959  .00013751  00000+0  60576-3 0  9994
2 56180  97.4118  29.1510 0011456 149.1908 211.0003 15.21880310  4920
KILICSAT                
1 56181U 23054D   23133.81522086  .00014688  00000+0  64722-3 0  9999
2 56181  97.4079  29.2149 0010631 144.9284 285.1239 15.21862323  4949
LEMUR-2-ONREFLECTION    
1 56182U 23054E   23133.66803757  .00019051  00000+0  83095-3 0  9993
2 56182  97.4011  29.0483 0010057 143.4685 216.7239 15.22160565  4924
2023-054F               
1 56183U 23054F   23133.67153813  .00010470  00000+0  46439-3 0  9993
2 56183  97.4035  29.0521 0009673 137.1995 222.9996 15.21732510  4923
SSS-2B                  
1 56184U 23054G   23133.66890087  .00014348  00000+0  62963-3 0  9992
2 56184  97.4143  29.0985 0012221 148.1956 212.0020 15.21992695  4920
BRO-9                   
1 56185U 23054H   23133.94184301  .00006765  00000+0  29996-3 0  9992
2 56185  97.4040  29.3293 0010194 139.3411 276.5687 15.21878784  4967
GHGSAT-C8               
1 56186U 23054J   23133.81792207  .00010896  00000+0  48260-3 0  9994
2 56186  97.4095  29.2233 0010983 143.9918 300.4316 15.21756761  4944
LEMUR-2-SPACEGUS        
1 56187U 23054K   23133.66471242  .00025821  00000+0  11130-2 0  9990
2 56187  97.4019  29.0531 0010260 135.8029 224.4029 15.22498710  4923
CIRBE                   
1 56188U 23054L   23132.54631227  .00018428  00000+0  80038-3 0  9997
2 56188  97.4094  27.9866 0011232 144.4973 215.7013 15.22300561  4752
2023-054M               
1 56189U 23054M   23133.66568753  .00010183  00000+0  44741-3 0  9996
2 56189  97.4108  29.0913 0011676 140.4745 219.7344 15.22043773  4929
NUSAT-36 (ANNIE CANNON) 
1 56190U 23054N   23133.16456697  .00027963  00000+0  12114-2 0  9998
2 56190  97.4054  28.5734 0010308 136.8969   9.4292 15.22309100  4840
HAWK-7A                 
1 56191U 23054P   23133.59339815  .00005456  00000+0  23757-3 0  9997
2 56191  97.4125  29.0515 0012500 138.4313 221.7876 15.22564776  4917
ION SCV-010             
1 56192U 23054Q   23132.67567888  .00010547  00000+0  42656-3 0  9995
2 56192  97.4077  28.1104 0004965 224.5622 135.5217 15.24891119  4775
HAWK-7B                 
1 56193U 23054R   23133.66952958  .00002242  00000+0  10000-3 0  9993
2 56193  97.3950  29.0544 0011680 134.1988 286.4965 15.22370929  4928
2023-054S               
1 56194U 23054S   23133.65868593  .00011691  00000+0  50570-3 0  9998
2 56194  97.4079  29.0890 0012068 134.0195 226.2038 15.22536589  4925
GHOST-1                 
1 56195U 23054T   23133.85826272  .00007822  00000+0  34241-3 0  9997
2 56195  97.4068  29.2721 0012397 130.2802 229.9520 15.22242214  4955
VIGORIDE-6              
1 56196U 23054U   23133.85210046  .00011329  00000+0  48788-3 0  9992
2 56196  97.4072  29.2852 0012979 134.3470 225.8833 15.22682536  4955
GHOST-2                 
1 56197U 23054V   23133.65653596  .00009564  00000+0  41451-3 0  9990
2 56197  97.4064  29.0830 0013237 132.3681 227.8679 15.22511136  4925
UMBRA-06                
1 56198U 23054W   23132.67752884  .00041545  00000+0  23155-2 0  9997
2 56198  97.4037  27.9440 0002571 112.8826 247.2677 15.13458222  4765
TOMORROW-R1             
1 56199U 23054X   23133.78536804  .00011627  00000+0  49994-3 0  9991
2 56199  97.4082  29.2245 0013272 133.6969 226.5370 15.22726627  4940
HAWK-7C                 
1 56200U 23054Y   23133.65829160  .00006840  00000+0  29857-3 0  9997
2 56200  97.4060  29.0788 0013806 129.9347 230.3105 15.22370567  4925
NUSAT-39 (TIKVAH ALPER) 
1 56201U 23054Z   23133.92563318  .00012946  00000+0  55370-3 0  9991
2 56201  97.4070  29.3628 0014137 132.1147 290.0636 15.22867772  4960
NUSAT-38 (MARIA AGNESI) 
1 56202U 23054AA  23133.93742506  .00012920  00000+0  55230-3 0  9998
2 56202  97.4086  29.3821 0014213 131.7129 356.9724 15.22887005  4964
NUSAT-37 (JOAN CLARKE)  
1 56203U 23054AB  23133.93681449  .00012913  00000+0  55012-3 0  9997
2 56203  97.4046  29.3648 0014130 128.5138   0.1929 15.23003271  4961
GHGSAT-C6               
1 56204U 23054AC  23133.93448963  .00011430  00000+0  48723-3 0  9994
2 56204  97.4116  29.3966 0014885 126.5686   2.6199 15.23004848  4963
2023-054AD              
1 56205U 23054AD  23133.70478293  .00015769  00000+0  65865-3 0  9994
2 56205  97.4104  29.1869 0016832 126.4325 233.8466 15.23588026  4931
LEMUR-2-ROMEO-N-LEO     
1 56206U 23054AE  23133.70179865  .00032057  00000+0  13068-2 0  9994
2 56206  97.4013  29.1536 0015425 126.4922 233.7739 15.24279037  4934
2023-054AF              
1 56207U 23054AF  23133.70483063  .00020084  00000+0  83305-3 0  9992
2 56207  97.4142  29.2036 0016392 131.4474 228.8174 15.23777627  4931
2023-054AG              
1 56208U 23054AG  23133.70942378  .00011243  00000+0  47563-3 0  9995
2 56208  97.4007  29.1419 0014880 121.6361 238.6330 15.23264674  4938
GHGSAT-C7               
1 56209U 23054AH  23133.85520788  .00006053  00000+0  26001-3 0  9996
2 56209  97.4079  29.3077 0014984 122.2974 302.1706 15.22950725  4956
CONNECTA T2.1           
1 56210U 23054AJ  23133.93010328  .00009731  00000+0  41328-3 0  9996
2 56210  97.4032  29.3703 0015447 121.4007   8.4961 15.23164600  4966
INSPIRE-SAT 7           
1 56211U 23054AK  23133.90009050  .00017172  00000+0  71215-3 0  9990
2 56211  97.4124  29.3927 0016738 128.3755 231.8988 15.23811834  4966
ROSEYCUBESAT-1          
1 56212U 23054AL  23133.70055595  .00018847  00000+0  77726-3 0  9997
2 56212  97.4130  29.2038 0017203 128.5518 231.7264 15.23972244  4939
2023-054AM              
1 56213U 23054AM  23133.70079063  .00017796  00000+0  73533-3 0  9998
2 56213  97.4051  29.1705 0016478 123.2429 237.0390 15.23930093  4933
LS3C                    
1 56214U 23054AN  23133.89725196  .00015878  00000+0  65663-3 0  9998
2 56214  97.4076  29.3768 0017011 123.9373 236.3484 15.23918264  4966
VCUB1                   
1 56215U 23054AP  23133.85920157  .00021270  00000+0  89422-3 0  9991
2 56215  97.4081  29.3075 0013041 117.0010 311.3546 15.23356116  4870
ELO-3                   
1 56216U 23054AQ  23133.73534203  .00018776  00000+0  82767-3 0  9994
2 56216  97.4069  29.1353 0009590 128.6806 231.5289 15.21805989  4837
KEPLER-20               
1 56217U 23054AR  23132.60868787  .00014984  00000+0  65001-3 0  9996
2 56217  97.4107  28.0601 0012950 139.7407 220.4791 15.22367888  4768
KEPLER-21               
1 56218U 23054AS  23133.86426955  .00007672  00000+0  34055-3 0  9994
2 56218  97.4048  29.2584 0011222 128.5368 231.6876 15.21786617  4952
FENGYUN 3G              
1 56232U 23055A   23133.80346434  .00040002  00000+0  61636-3 0  9997
2 56232  50.0009  54.7053 0004396  39.7114  57.7395 15.53722766  4313
STARLINK-30107          
1 56287U 23056B   23133.91667824  .00019000  00000+0  66416-3 0  9994
2 56287  43.0022  59.8559 0002071 246.7465 233.3690 15.29217741  1305
STARLINK-30106          
1 56288U 23056C   23133.91667824 -.00019477  00000+0 -66466-3 0  9990
2 56288  43.0023  59.8524 0001289 256.8769 224.7269 15.29266299  1306
STARLINK-30095          
1 56289U 23056D   23133.91667824  .00698250  00000+0  28073-2 0  9992
2 56289  43.0012  54.7430 0007484 225.3371 176.3394 15.83833094  1302
STARLINK-30103          
1 56290U 23056E   23133.91667824 -.00024434  00000+0 -83690-3 0  9990
2 56290  43.0023  59.8544 0001588 254.4317 226.4356 15.29259176  1308
STARLINK-30113          
1 56291U 23056F   23133.91667824 -.00006985  00000+0 -23218-3 0  9992
2 56291  43.0023  59.8506 0001920 233.3372 249.0006 15.29243623  1307
STARLINK-30098          
1 56292U 23056G   23133.91667824 -.00050341  00000+0 -17388-2 0  9998
2 56292  43.0023  59.8458 0001662 239.7919 244.6136 15.29282700  1308
STARLINK-30090          
1 56293U 23056H   23133.91667824  .00005721  00000+0  20659-3 0  9995
2 56293  43.0022  59.8475 0001572 248.3214 235.3974 15.29248096  1308
STARLINK-30049          
1 56294U 23056J   23133.91667824 -.00760955  00000+0 -19035-1 0  9999
2 56294  43.0029  58.4920 0001292 260.6383  62.5404 15.41882389  1300
STARLINK-30083          
1 56295U 23056K   23133.91667824  .00769161  00000+0  29642-2 0  9992
2 56295  43.0011  54.6689 0008137 223.4618 207.7854 15.84546917  1308
STARLINK-30089          
1 56296U 23056L   23133.96479731  .00896688  00000+0  29552-2 0  9991
2 56296  43.0005  54.0818 0007985 229.6560 231.3798 15.87478278  4337
STARLINK-30086          
1 56297U 23056M   23133.91667824 -.00771307  00000+0 -18803-1 0  9997
2 56297  43.0031  58.4527 0001470 261.1194  78.3145 15.42678369  1302
STARLINK-30109          
1 56298U 23056N   23133.91667824 -.00764211  00000+0 -18865-1 0  9992
2 56298  43.0032  58.4727 0001305 260.8965  70.4004 15.42285567  1306
STARLINK-30108          
1 56299U 23056P   23133.91667824  .00132199  00000+0  94652-3 0  9995
2 56299  43.0022  56.1231 0004648 233.7355 333.1473 15.72539933  1307
STARLINK-30104          
1 56300U 23056Q   23133.91667824 -.00008189  00000+0 -27388-3 0  9993
2 56300  43.0019  59.8281 0001428 236.0347 256.1752 15.29244325  1305
STARLINK-30101          
1 56301U 23056R   23133.91667824 -.00011605  00000+0 -39214-3 0  9992
2 56301  43.0020  59.7878 0000576 266.4642 242.4573 15.29245497  1307
STARLINK-30111          
1 56302U 23056S   23133.91667824 -.00772861  00000+0 -18605-1 0  9990
2 56302  43.0030  58.4332 0001488 264.8972  82.7252 15.43054760  1307
STARLINK-30097          
1 56303U 23056T   23133.91667824 -.00777217  00000+0 -18845-1 0  9997
2 56303  43.0030  58.4420 0001530 258.7258  85.2386 15.42856763  1301
